[{"OBJECT_NAME":"SPAWAR-CAL-R","OBJECT_ID":"2018-099U","EPOCH":"2026-03-08T15:37:40.202400","MEAN_MOTION":15.05212097,"ECCENTRICITY":0.00197014,"INCLINATION":97.4524,"RA_OF_ASC_NODE":111.5817,"ARG_OF_PERICENTER":348.9052,"MEAN_ANOMALY":11.1737,"EPHEMERIS_TYPE":0,"CLASSIFICATION_TYPE":"U","NORAD_CAT_ID":43776,"ELEMENT_SET_NO":999,"REV_AT_EPOCH":39687,"BSTAR":0.00025335573,"MEAN_MOTION_DOT":3.57e-5,"MEAN_MOTION_DDOT":0},{"OBJECT_NAME":"STARLINK-5057","OBJECT_ID":"2022-119Y","EPOCH":"2026-03-09T21:26:51.021312","MEAN_MOTION":15.0882864,"ECCENTRICITY":0.00013037,"INCLINATION":53.2176,"RA_OF_ASC_NODE":313.3455,"ARG_OF_PERICENTER":81.8663,"MEAN_ANOMALY":278.2477,"EPHEMERIS_TYPE":0,"CLASSIFICATION_TYPE":"U","NORAD_CAT_ID":53908,"ELEMENT_SET_NO":999,"REV_AT_EPOCH":19185,"BSTAR":-8.2039681e-5,"MEAN_MOTION_DOT":-1.593e-5,"MEAN_MOTION_DDOT":0}]
